NORAD_CAT_ID,OBJECT_NAME,OBJECT_TYPE,EPOCH,MEAN_MOTION,ECCENTRICITY,INCLINATION,RA_OF_ASC_NODE,ARG_OF_PERICENTER,MEAN_ANOMALY,BSTAR,MEAN_MOTION_DOT,MEAN_MOTION_DDOT,TLE_LINE0,TLE_LINE1,TLE_LINE2,SEMIMAJOR_AXIS,PERIOD,APOGEE,PERIGEE,DECAYED
52095.0,STARLINK-3701,PAYLOAD,2022-11-30 23:02:24,15.0881199,0.0003103,53.218,52.4826,37.2578,322.8629,-0.0001823,-3.187e-05,0.0,0 STARLINK-3701,1 52095U 22029H   22334.96000462 -.00003187  00000-0 -18230-3 0  9995,2 52095  53.2180  52.4826 0003103  37.2578 322.8629 15.08811990 40297,6917.965999999999,95.439,541.9780000000002,537.684,0.0
52095.0,STARLINK-3701,PAYLOAD,2022-12-01 11:45:28,15.08845029,0.0002269,53.2163,50.097,34.0983,326.0155,0.00025356,3.75e-05,0.0,0 STARLINK-3701,1 52095U 22029H   22335.48991236  .00003750  00000-0  25356-3 0  9992,2 52095  53.2163  50.0970 0002269  34.0983 326.0155 15.08845029 40378,6917.865,95.437,541.3,538.16,0.0
52095.0,STARLINK-3701,PAYLOAD,2022-12-01 16:31:38,15.08846578,0.000244,53.2166,49.205,32.6471,327.4671,0.00048999,7.52e-05,0.0,0 STARLINK-3701,1 52095U 22029H   22335.68863495  .00007520  00000-0  48999-3 0  9996,2 52095  53.2166  49.2050 0002440  32.6471 327.4671 15.08846578 40409,6917.86,95.437,541.413,538.0369999999998,0.0
52095.0,STARLINK-3701,PAYLOAD,2022-12-02 11:36:15,15.08850564,0.00024,53.217,45.6368,39.7799,320.3369,0.00043441,6.634e-05,0.0,0 STARLINK-3701,1 52095U 22029H   22336.48351393  .00006634  00000-0  43441-3 0  9996,2 52095  53.2170  45.6368 0002400  39.7799 320.3369 15.08850564 40522,6917.848000000001,95.437,541.373,538.053,0.0
52095.0,STARLINK-3701,PAYLOAD,2022-12-02 16:22:25,15.0884148,0.0002382,53.2168,44.7447,36.9629,323.1527,0.0001882,2.708e-05,0.0,0 STARLINK-3701,1 52095U 22029H   22336.68223624  .00002708  00000-0  18820-3 0  9994,2 52095  53.2168  44.7447 0002382  36.9629 323.1527 15.08841480 40554,6917.876,95.437,541.389,538.0930000000002,0.0
52095.0,STARLINK-3701,PAYLOAD,2022-12-03 13:02:25,15.08839943,0.0002321,53.2172,40.8795,31.5402,328.5728,-7.1163e-05,-1.421e-05,0.0,0 STARLINK-3701,1 52095U 22029H   22337.54335404 -.00001421  00000-0 -71163-4 0  9993,2 52095  53.2172  40.8795 0002321  31.5402 328.5728 15.08839943 40682,6917.880999999999,95.438,541.351,538.14,0.0
52095.0,STARLINK-3701,PAYLOAD,2022-12-03 16:13:12,15.08841863,0.0002219,53.2175,40.2844,33.1091,327.004,5.577e-06,-2e-06,0.0,0 STARLINK-3701,1 52095U 22029H   22337.67583628 -.00000200  00000-0  55770-5 0  9990,2 52095  53.2175  40.2844 0002219  33.1091 327.0040 15.08841863 40700,6917.875,95.437,541.275,538.205,0.0
52095.0,STARLINK-3701,PAYLOAD,2022-12-03 20:59:21,15.08847122,0.0002228,53.2176,39.3923,33.1914,326.9218,4.0907e-05,3.63e-06,0.0,0 STARLINK-3701,1 52095U 22029H   22337.87455201  .00000363  00000-0  40907-4 0  9991,2 52095  53.2176  39.3923 0002228  33.1914 326.9218 15.08847122 40734,6917.859,95.437,541.265,538.182,0.0
52095.0,STARLINK-3701,PAYLOAD,2022-12-04 11:17:49,15.08838605,0.0002258,53.2179,36.7161,32.1435,327.9694,6.5175e-05,7.49e-06,0.0,0 STARLINK-3701,1 52095U 22029H   22338.47071475  .00000749  00000-0  65175-4 0  9997,2 52095  53.2179  36.7161 0002258  32.1435 327.9694 15.08838605 40827,6917.885,95.438,541.312,538.188,0.0
52095.0,STARLINK-3701,PAYLOAD,2022-12-04 12:53:12,15.08838957,0.0002287,53.2179,36.4188,31.402,328.7108,6.8935e-05,8.09e-06,0.0,0 STARLINK-3701,1 52095U 22029H   22338.53695458  .00000809  00000-0  68935-4 0  9991,2 52095  53.2179  36.4188 0002287  31.4020 328.7108 15.08838957 40837,6917.884,95.438,541.331,538.1659999999998,0.0
52095.0,STARLINK-3701,PAYLOAD,2022-12-04 14:28:35,15.08839873,0.0002304,53.2179,36.1214,31.1308,328.982,7.667e-05,9.32e-06,0.0,0 STARLINK-3701,1 52095U 22029H   22338.60319397  .00000932  00000-0  76670-4 0  9996,2 52095  53.2179  36.1214 0002304  31.1308 328.9820 15.08839873 40842,6917.880999999999,95.438,541.34,538.1519999999998,0.0
52095.0,STARLINK-3701,PAYLOAD,2022-12-05 03:11:40,15.08852932,0.0002344,53.2172,33.7427,29.9403,330.1723,1.2225e-05,-9.4e-07,0.0,0 STARLINK-3701,1 52095U 22029H   22339.13310364 -.00000094  00000-0  12225-4 0  9996,2 52095  53.2172  33.7427 0002344  29.9403 330.1723 15.08852932 40926,6917.840999999999,95.437,541.327,538.0840000000002,0.0
52095.0,STARLINK-3701,PAYLOAD,2022-12-05 04:47:03,15.08850649,0.0002384,53.2174,33.4451,30.8295,329.2837,-5.0683e-05,-1.095e-05,0.0,0 STARLINK-3701,1 52095U 22029H   22339.19934439 -.00001095  00000-0 -50683-4 0  9990,2 52095  53.2174  33.4451 0002384  30.8295 329.2837 15.08850649 40935,6917.848000000001,95.437,541.362,538.064,0.0
52095.0,STARLINK-3701,PAYLOAD,2022-12-05 20:40:54,15.0885467,0.0002351,53.2177,30.4717,32.4327,327.6809,0.00021862,3.194e-05,0.0,0 STARLINK-3701,1 52095U 22029H   22339.86174087  .00003194  00000-0  21862-3 0  9995,2 52095  53.2177  30.4717 0002351  32.4327 327.6809 15.08854670 41039,6917.8359999999975,95.437,541.327,538.0740000000002,0.0
52095.0,STARLINK-3701,PAYLOAD,2022-12-06 04:37:51,15.08825761,0.0002205,53.2177,28.9849,37.2649,322.8496,0.00098495,0.00015416,0.0,0 STARLINK-3701,1 52095U 22029H   22340.19295972  .00015416  00000-0  98495-3 0  9996,2 52095  53.2177  28.9849 0002205  37.2649 322.8496 15.08825761 41088,6917.924,95.438,541.314,538.264,0.0
52095.0,STARLINK-3701,PAYLOAD,2022-12-06 12:34:46,15.08840239,0.0002757,53.2183,27.4984,30.3741,329.7411,2.174e-06,-2.54e-06,0.0,0 STARLINK-3701,1 52095U 22029H   22340.52414634 -.00000254  00000-0  21740-5 0  9997,2 52095  53.2183  27.4984 0002757  30.3741 329.7411 15.08840239 41134,6917.88,95.438,541.6519999999998,537.837,0.0
52095.0,STARLINK-3701,PAYLOAD,2022-12-06 15:45:32,15.08835173,0.0002753,53.2176,26.9034,30.4426,329.6725,-6.2613e-05,-1.285e-05,0.0,0 STARLINK-3701,1 52095U 22029H   22340.65662960 -.00001285  00000-0 -62613-4 0  9997,2 52095  53.2176  26.9034 0002753  30.4426 329.6725 15.08835173 41153,6917.895,95.438,541.665,537.856,0.0
52095.0,STARLINK-3701,PAYLOAD,2022-12-07 09:14:47,15.08841257,0.0002392,53.2171,23.6317,32.6494,327.4646,4.4417e-05,4.19e-06,0.0,0 STARLINK-3701,1 52095U 22029H   22341.38526790  .00000419  00000-0  44417-4 0  9996,2 52095  53.2171  23.6317 0002392  32.6494 327.4646 15.08841257 41264,6917.877,95.437,541.396,538.087,0.0
52095.0,STARLINK-3701,PAYLOAD,2022-12-07 14:00:56,15.08829319,0.0002622,53.2171,22.7399,33.3305,326.7852,-0.00011539,-2.124e-05,0.0,0 STARLINK-3701,1 52095U 22029H   22341.58399288 -.00002124  00000-0 -11539-3 0  9993,2 52095  53.2171  22.7399 0002622  33.3305 326.7852 15.08829319 41298,6917.913000000001,95.438,541.592,537.964,0.0
52095.0,STARLINK-3701,PAYLOAD,2022-12-07 20:22:29,15.08839131,0.0002436,53.2174,21.5508,31.0102,329.1034,9.0411e-05,1.151e-05,0.0,0 STARLINK-3701,1 52095U 22029H   22341.84895123  .00001151  00000-0  90411-4 0  9995,2 52095  53.2174  21.5508 0002436  31.0102 329.1034 15.08839131 41330,6917.8830000000025,95.438,541.433,538.063,0.0
52095.0,STARLINK-3701,PAYLOAD,2022-12-08 12:16:20,15.08854561,0.0002529,53.2172,18.5772,35.0603,325.0555,0.00048291,7.409e-05,0.0,0 STARLINK-3701,1 52095U 22029H   22342.51134582  .00007409  00000-0  48291-3 0  9995,2 52095  53.2172  18.5772 0002529  35.0603 325.0555 15.08854561 41438,6917.8359999999975,95.437,541.45,537.951,0.0
52095.0,STARLINK-3701,PAYLOAD,2022-12-08 13:51:43,15.08857308,0.0002529,53.2167,18.2796,32.4557,327.6591,0.00052521,8.084e-05,0.0,0 STARLINK-3701,1 52095U 22029H   22342.57758431  .00008084  00000-0  52521-3 0  9997,2 52095  53.2167  18.2796 0002529  32.4557 327.6591 15.08857308 41445,6917.8269999999975,95.436,541.442,537.943,0.0
52095.0,STARLINK-3701,PAYLOAD,2022-12-09 12:07:07,15.0883598,0.0002634,53.2168,14.1168,24.9889,335.1230000000001,-9.9982e-05,-1.879e-05,0.0,0 STARLINK-3701,1 52095U 22029H   22343.50494662 -.00001879  00000-0 -99982-4 0  9994,2 52095  53.2168  14.1168 0002634  24.9889 335.1230 15.08835980 41586,6917.893,95.438,541.58,537.936,0.0
52095.0,STARLINK-3701,PAYLOAD,2022-12-10 11:57:55,15.08834585,0.0002522,53.2168,9.6559,30.0863,330.0273,8.4458e-05,1.056e-05,0.0,0 STARLINK-3701,1 52095U 22029H   22344.49855377  .00001056  00000-0  84458-4 0  9994,2 52095  53.2168   9.6559 0002522  30.0863 330.0273 15.08834585 41733,6917.897,95.438,541.507,538.0169999999998,0.0
52095.0,STARLINK-3701,PAYLOAD,2022-12-11 02:16:23,15.08849353,0.0002391,53.2171,6.9793,28.5993,331.5130000000001,0.00094126,0.00014728,0.0,0 STARLINK-3701,1 52095U 22029H   22345.09471619  .00014728  00000-0  94126-3 0  9996,2 52095  53.2171   6.9793 0002391  28.5993 331.5130 15.08849353 41824,6917.852,95.437,541.371,538.063,0.0
52095.0,STARLINK-3701,PAYLOAD,2022-12-11 10:13:19,15.0884496,0.0002412,53.217,5.4923,27.6011,332.5109,0.00041254,6.284e-05,0.0,0 STARLINK-3701,1 52095U 22029H   22345.42591642  .00006284  00000-0  41254-3 0  9994,2 52095  53.2170   5.4923 0002412  27.6011 332.5109 15.08844960 41878,6917.865,95.437,541.399,538.062,0.0
52095.0,STARLINK-3701,PAYLOAD,2022-12-12 06:53:19,15.08847424,0.0002424,53.2167,1.626,28.642,331.4705,0.00022784,3.34e-05,0.0,0 STARLINK-3701,1 52095U 22029H   22346.28703292  .00003340  00000-0  22784-3 0  9992,2 52095  53.2167   1.6260 0002424  28.6420 331.4705 15.08847424 42008,6917.858,95.437,541.4,538.0459999999998,0.0
52095.0,STARLINK-3701,PAYLOAD,2022-12-13 01:57:57,15.08836555,0.0002437,53.2172,358.0581,31.6216,328.4922,-2.9817e-05,-7.63e-06,0.0,0 STARLINK-3701,1 52095U 22029H   22347.08191619 -.00000763  00000-0 -29817-4 0  9998,2 52095  53.2172 358.0581 0002437  31.6216 328.4922 15.08836555 42123,6917.891,95.438,541.442,538.07,0.0
52095.0,STARLINK-3701,PAYLOAD,2022-12-13 09:54:53,15.08837486,0.0002542,53.2169,356.571,30.3529,329.761,2.0609e-05,4e-07,0.0,0 STARLINK-3701,1 52095U 22029H   22347.41311811  .00000040  00000-0  20609-4 0  9999,2 52095  53.2169 356.5710 0002542  30.3529 329.7610 15.08837486 42173,6917.888000000001,95.438,541.512,537.995,0.0
